[{"OBJECT_NAME":"STARLINK-2464","OBJECT_ID":"2021-027AH","EPOCH":"2026-03-10T00:00:02.999808","MEAN_MOTION":15.09205668,"ECCENTRICITY":0.00019372,"INCLINATION":53.0617,"RA_OF_ASC_NODE":150.2193,"ARG_OF_PERICENTER":47.7543,"MEAN_ANOMALY":50.293,"EPHEMERIS_TYPE":0,"CLASSIFICATION_TYPE":"U","NORAD_CAT_ID":48123,"ELEMENT_SET_NO":999,"REV_AT_EPOCH":569,"BSTAR":0.0055776502,"MEAN_MOTION_DOT":0.00090534,"MEAN_MOTION_DDOT":0},{"OBJECT_NAME":"RAPIDEYE 1","OBJECT_ID":"2008-040C","EPOCH":"2026-03-09T15:08:44.758176","MEAN_MOTION":15.03049091,"ECCENTRICITY":0.0028174,"INCLINATION":97.4223,"RA_OF_ASC_NODE":100.7722,"ARG_OF_PERICENTER":157.1968,"MEAN_ANOMALY":203.0516,"EPHEMERIS_TYPE":0,"CLASSIFICATION_TYPE":"U","NORAD_CAT_ID":33314,"ELEMENT_SET_NO":999,"REV_AT_EPOCH":95070,"BSTAR":0.00023277,"MEAN_MOTION_DOT":3.104e-5,"MEAN_MOTION_DDOT":0}]
